ONEWEB-0116             
1 48046U 21025E   24319.34011234  .00000030  00000+0  48191-4 0  9998
2 48046  87.8922  75.5390 0001791  98.2297 261.9035 13.13473501177531
ONEWEB-0150             
1 48047U 21025F   24319.39089621  .00000334  00000+0  87937-3 0  9996
2 48047  87.8913  75.5389 0001594 106.3380 253.7924 13.13472395177430
ONEWEB-0107             
1 48048U 21025G   24319.39249756  .00000349  00000+0  91990-3 0  9994
2 48048  87.8914  75.5365 0001226 103.1244 257.0022 13.13473177177415
ONEWEB-0101             
1 48049U 21025H   24319.35597562 -.00000236  00000+0 -68233-3 0  9993
2 48049  87.8918  75.5688 0001563  98.3219 261.8087 13.13473503177382
ONEWEB-0113             
1 48050U 21025J   24319.33377034  .00000190  00000+0  48524-3 0  9991
2 48050  87.8921  75.5539 0001724  99.1760 260.9564 13.13472886177464
ONEWEB-0112             
1 48051U 21025K   24319.39724005  .00000352  00000+0  93024-3 0  9997
2 48051  87.8915  75.5327 0001667 103.2385 256.8930 13.13473849177482
ONEWEB-0156             
1 48052U 21025L   24319.33058891  .00000262  00000+0  68251-3 0  9999
2 48052  87.8920  75.5491 0001637 102.2192 257.9121 13.13471661177454
ONEWEB-0161             
1 48053U 21025M   24319.37980109  .00000175  00000+0  44320-3 0  9994
2 48053  87.8919  75.5504 0001501 101.7491 258.3806 13.13470841177391
